{
  "type": "FeatureCollection",
  "features": [
    {
      "type": "Feature",
      "properties": {
        "norad_id": 66935,
        "name": "STARLINK-36127",
        "group": "last-30-days",
        "lat": -5.332202317922941,
        "lon": -136.52575555864064,
        "alt_km": 296.11931967817964,
        "timestamp": "2025-12-14T22:38:39.519719+00:00",
        "meta_object_name": "STARLINK-36127",
        "meta_object_id": "2025-286L",
        "meta_epoch": "2025-12-14T06:00:02.999808",
        "meta_mean_motion": 15.94564907,
        "meta_eccentricity": 9.11e-05,
        "meta_inclination": 53.1575,
        "meta_ra_of_asc_node": 43.004,
        "meta_arg_of_pericenter": 80.5967,
        "meta_mean_anomaly": 84.9399,
        "meta_ephemeris_type": 0,
        "meta_classification_type": "U",
        "meta_norad_cat_id": 66935,
        "meta_element_set_no": 999,
        "meta_rev_at_epoch": 223,
        "meta_bstar": -0.003359361,
        "meta_mean_motion_dot": -0.01304084,
        "meta_mean_motion_ddot": 0.00050832445,
        "tle_line1": "1 66935U 25286L   25348.25003472 -.01304084  50832-3 -33594-2 0  9996",
        "tle_line2": "2 66935  53.1575  43.0040 0000911  80.5967  84.9399 15.94564907  2233"
      },
      "geometry": {
        "type": "Point",
        "coordinates": [
          -136.52575555864064,
          -5.332202317922941
        ]
      }
    },
    {
      "type": "Feature",
      "properties": {
        "norad_id": 66936,
        "name": "STARLINK-36160",
        "group": "last-30-days",
        "lat": -6.662621835267831,
        "lon": -135.51721688848116,
        "alt_km": 296.0802275669221,
        "timestamp": "2025-12-14T22:38:39.519732+00:00",
        "meta_object_name": "STARLINK-36160",
        "meta_object_id": "2025-286M",
        "meta_epoch": "2025-12-14T06:00:02.999808",
        "meta_mean_motion": 15.94638452,
        "meta_eccentricity": 9.033e-05,
        "meta_inclination": 53.1575,
        "meta_ra_of_asc_node": 43.0011,
        "meta_arg_of_pericenter": 85.1106,
        "meta_mean_anomaly": 81.93,
        "meta_ephemeris_type": 0,
        "meta_classification_type": "U",
        "meta_norad_cat_id": 66936,
        "meta_element_set_no": 999,
        "meta_rev_at_epoch": 223,
        "meta_bstar": -0.0033772167,
        "meta_mean_motion_dot": -0.01316038,
        "meta_mean_motion_ddot": 0.00051722748,
        "tle_line1": "1 66936U 25286M   25348.25003472 -.01316038  51723-3 -33772-2 0  9997",
        "tle_line2": "2 66936  53.1575  43.0011 0000903  85.1106  81.9300 15.94638452  2235"
      },
      "geometry": {
        "type": "Point",
        "coordinates": [
          -135.51721688848116,
          -6.662621835267831
        ]
      }
    },
    {
      "type": "Feature",
      "properties": {
        "norad_id": 66937,
        "name": "STARLINK-36165",
        "group": "last-30-days",
        "lat": -8.02643576621733,
        "lon": -134.47651544558485,
        "alt_km": 296.12186207789,
        "timestamp": "2025-12-14T22:38:39.519744+00:00",
        "meta_object_name": "STARLINK-36165",
        "meta_object_id": "2025-286N",
        "meta_epoch": "2025-12-14T06:00:02.999808",
        "meta_mean_motion": 15.9470609,
        "meta_eccentricity": 0.00010066,
        "meta_inclination": 53.1574,
        "meta_ra_of_asc_node": 42.9976,
        "meta_arg_of_pericenter": 71.9434,
        "meta_mean_anomaly": 96.6363,
        "meta_ephemeris_type": 0,
        "meta_classification_type": "U",
        "meta_norad_cat_id": 66937,
        "meta_element_set_no": 999,
        "meta_rev_at_epoch": 223,
        "meta_bstar": -0.003359108,
        "meta_mean_motion_dot": -0.01313772,
        "meta_mean_motion_ddot": 0.00051595679,
        "tle_line1": "1 66937U 25286N   25348.25003472 -.01313772  51596-3 -33591-2 0  9997",
        "tle_line2": "2 66937  53.1574  42.9976 0001006  71.9434  96.6363 15.94706090  2231"
      },
      "geometry": {
        "type": "Point",
        "coordinates": [
          -134.47651544558485,
          -8.02643576621733
        ]
      }
    },
    {
      "type": "Feature",
      "properties": {
        "norad_id": 66938,
        "name": "STARLINK-36155",
        "group": "last-30-days",
        "lat": -9.394051508163988,
        "lon": -133.4236599983012,
        "alt_km": 296.050192580361,
        "timestamp": "2025-12-14T22:38:39.519755+00:00",
        "meta_object_name": "STARLINK-36155",
        "meta_object_id": "2025-286P",
        "meta_epoch": "2025-12-14T06:00:02.999808",
        "meta_mean_motion": 15.94777748,
        "meta_eccentricity": 8.863e-05,
        "meta_inclination": 53.1573,
        "meta_ra_of_asc_node": 42.9942,
        "meta_arg_of_pericenter": 84.8988,
        "meta_mean_anomaly": 85.2331,
        "meta_ephemeris_type": 0,
        "meta_classification_type": "U",
        "meta_norad_cat_id": 66938,
        "meta_element_set_no": 999,
        "meta_rev_at_epoch": 223,
        "meta_bstar": -0.0033603427,
        "meta_mean_motion_dot": -0.01319229,
        "meta_mean_motion_ddot": 0.00052024237,
        "tle_line1": "1 66938U 25286P   25348.25003472 -.01319229  52024-3 -33603-2 0  9992",
        "tle_line2": "2 66938  53.1573  42.9942 0000886  84.8988  85.2331 15.94777748  2233"
      },
      "geometry": {
        "type": "Point",
        "coordinates": [
          -133.4236599983012,
          -9.394051508163988
        ]
      }
    },
    {
      "type": "Feature",
      "properties": {
        "norad_id": 66939,
        "name": "STARLINK-36154",
        "group": "last-30-days",
        "lat": -12.353634635849447,
        "lon": -131.1051429725307,
        "alt_km": 296.1024716065185,
        "timestamp": "2025-12-14T22:38:39.519767+00:00",
        "meta_object_name": "STARLINK-36154",
        "meta_object_id": "2025-286Q",
        "meta_epoch": "2025-12-14T06:00:02.999808",
        "meta_mean_motion": 15.94937147,
        "meta_eccentricity": 9.293e-05,
        "meta_inclination": 53.1572,
        "meta_ra_of_asc_node": 42.9874,
        "meta_arg_of_pericenter": 78.6253,
        "meta_mean_anomaly": 94.8766,
        "meta_ephemeris_type": 0,
        "meta_classification_type": "U",
        "meta_norad_cat_id": 66939,
        "meta_element_set_no": 999,
        "meta_rev_at_epoch": 223,
        "meta_bstar": -0.0033763069,
        "meta_mean_motion_dot": -0.01336675,
        "meta_mean_motion_ddot": 0.00053370484,
        "tle_line1": "1 66939U 25286Q   25348.25003472 -.01336675  53370-3 -33763-2 0  9999",
        "tle_line2": "2 66939  53.1572  42.9874 0000929  78.6253  94.8766 15.94937147  2230"
      },
      "geometry": {
        "type": "Point",
        "coordinates": [
          -131.1051429725307,
          -12.353634635849447
        ]
      }
    },
    {
      "type": "Feature",
      "properties": {
        "norad_id": 66940,
        "name": "STARLINK-36121",
        "group": "last-30-days",
        "lat": -13.653076141124396,
        "lon": -130.066624664821,
        "alt_km": 296.0266134590538,
        "timestamp": "2025-12-14T22:38:39.519777+00:00",
        "meta_object_name": "STARLINK-36121",
        "meta_object_id": "2025-286R",
        "meta_epoch": "2025-12-14T06:00:02.999808",
        "meta_mean_motion": 15.95001926,
        "meta_eccentricity": 8.58e-05,
        "meta_inclination": 53.1571,
        "meta_ra_of_asc_node": 42.9841,
        "meta_arg_of_pericenter": 81.6562,
        "meta_mean_anomaly": 93.3372,
        "meta_ephemeris_type": 0,
        "meta_classification_type": "U",
        "meta_norad_cat_id": 66940,
        "meta_element_set_no": 999,
        "meta_rev_at_epoch": 223,
        "meta_bstar": -0.0033693769,
        "meta_mean_motion_dot": -0.01338551,
        "meta_mean_motion_ddot": 0.00053542062,
        "tle_line1": "1 66940U 25286R   25348.25003472 -.01338551  53542-3 -33694-2 0  9990",
        "tle_line2": "2 66940  53.1571  42.9841 0000858  81.6562  93.3372 15.95001926  2238"
      },
      "geometry": {
        "type": "Point",
        "coordinates": [
          -130.066624664821,
          -13.653076141124396
        ]
      }
    },
    {
      "type": "Feature",
      "properties": {
        "norad_id": 66941,
        "name": "STARLINK-36088",
        "group": "last-30-days",
        "lat": -10.981859450780979,
        "lon": -132.1875003866262,
        "alt_km": 296.1258896901718,
        "timestamp": "2025-12-14T22:38:39.519787+00:00",
        "meta_object_name": "STARLINK-36088",
        "meta_object_id": "2025-286S",
        "meta_epoch": "2025-12-14T06:00:02.999808",
        "meta_mean_motion": 15.94860474,
        "meta_eccentricity": 9.808e-05,
        "meta_inclination": 53.1572,
        "meta_ra_of_asc_node": 42.9903,
        "meta_arg_of_pericenter": 78.8672,
        "meta_mean_anomaly": 93.0717,
        "meta_ephemeris_type": 0,
        "meta_classification_type": "U",
        "meta_norad_cat_id": 66941,
        "meta_element_set_no": 999,
        "meta_rev_at_epoch": 223,
        "meta_bstar": -0.0033624117,
        "meta_mean_motion_dot": -0.01325844,
        "meta_mean_motion_ddot": 0.0005254425,
        "tle_line1": "1 66941U 25286S   25348.25003472 -.01325844  52544-3 -33624-2 0  9996",
        "tle_line2": "2 66941  53.1572  42.9903 0000980  78.8672  93.0717 15.94860474  2235"
      },
      "geometry": {
        "type": "Point",
        "coordinates": [
          -132.1875003866262,
          -10.981859450780979
        ]
      }
    }
  ]
}